{
    "links": {
        "self": "http://www.neowsapp.com/rest/v1/neo/54087838?api_key=iIulBulltgU6a56xZRHN4H3l9WmuAYTsLGpBGhQ2"
    },
    "id": "54087838",
    "neo_reference_id": "54087838",
    "name": "(2020 VK5)",
    "designation": "2020 VK5",
    "nasa_jpl_url": "http://ssd.jpl.nasa.gov/sbdb.cgi?sstr=54087838",
    "absolute_magnitude_h": 24.006,
    "estimated_diameter": {
        "kilometers": {
            "estimated_diameter_min": 0.042010222,
            "estimated_diameter_max": 0.0939377122
        },
        "meters": {
            "estimated_diameter_min": 42.0102220063,
            "estimated_diameter_max": 93.9377121558
        },
        "miles": {
            "estimated_diameter_min": 0.0261039337,
            "estimated_diameter_max": 0.0583701701
        },
        "feet": {
            "estimated_diameter_min": 137.828816767,
            "estimated_diameter_max": 308.1946035494
        }
    },
    "is_potentially_hazardous_asteroid": false,
    "close_approach_data": [
        {
            "close_approach_date": "2020-11-15",
            "close_approach_date_full": "2020-Nov-15 15:33",
            "epoch_date_close_approach": 1605454380000,
            "relative_velocity": {
                "kilometers_per_second": "14.4900454257",
                "kilometers_per_hour": "52164.1635325679",
                "miles_per_hour": "32412.7826127781"
            },
            "miss_distance": {
                "astronomical": "0.0737921256",
                "lunar": "28.7051368584",
                "kilometers": "11039144.812532472",
                "miles": "6859406.5116012336"
            },
            "orbiting_body": "Earth"
        }
    ],
    "orbital_data": {
        "orbit_id": "9",
        "orbit_determination_date": "2020-11-24 05:23:43",
        "first_observation_date": "2020-11-14",
        "last_observation_date": "2020-11-22",
        "data_arc_in_days": 8,
        "observations_used": 99,
        "orbit_uncertainty": "8",
        "minimum_orbit_intersection": ".0733065",
        "jupiter_tisserand_invariant": "3.948",
        "epoch_osculation": "2459170.5",
        "eccentricity": ".3967897567357455",
        "semi_major_axis": "1.743104275692445",
        "inclination": "24.97482702592702",
        "ascending_node_longitude": "231.770341744449",
        "orbital_period": "840.5885676736784",
        "perihelion_distance": "1.051458354175402",
        "perihelion_argument": "196.3555878197631",
        "aphelion_distance": "2.434750197209488",
        "perihelion_time": "2459183.091723493673",
        "mean_anomaly": "354.6073255906069",
        "mean_motion": ".4282713492003548",
        "equinox": "J2000",
        "orbit_class": {
            "orbit_class_type": "AMO",
            "orbit_class_description": "Near-Earth asteroid orbits similar to that of 1221 Amor",
            "orbit_class_range": "1.017 AU < q (perihelion) < 1.3 AU"
        }
    },
    "is_sentry_object": false
}